API VERSION: 1.2
API SOURCE: NASA/JPL Horizons API

*******************************************************************************
 Revised: April 12, 2021                Venus                           299 / 2
 
 PHYSICAL DATA (updated 2020-Oct-19):
  Vol. Mean Radius (km) =  6051.84+-0.01 Density (g/cm^3)      =  5.204
  Mass x10^23 (kg)      =    48.685      Volume (x10^10 km^3)  = 92.843
  Sidereal rot. period  =   243.018484 d Sid. Rot. Rate (rad/s)= -0.00000029924
  Mean solar day        =   116.7490 d   Equ. gravity  m/s^2   =  8.870
  Mom. of Inertia       =     0.33       Core radius (km)      = ~3200
  Geometric Albedo      =     0.65       Potential Love # k2   = ~0.25
  GM (km^3/s^2)         = 324858.592     Equatorial Radius, Re = 6051.893 km
  GM 1-sigma (km^3/s^2) =    +-0.006     Mass ratio (Sun/Venus)= 408523.72
  Atmos. pressure (bar) =  90            Max. angular diam.    =   60.2"
  Mean Temperature (K)  = 735            Visual mag. V(1,0)    =   -4.40
  Obliquity to orbit    = 177.3 deg      Hill's sphere rad.,Rp =  167.1
  Sidereal orb. per., y =   0.61519726   Orbit speed, km/s     =   35.021
  Sidereal orb. per., d = 224.70079922   Escape speed, km/s    =   10.361
                                 Perihelion  Aphelion    Mean
  Solar Constant (W/m^2)         2759         2614       2650
  Maximum Planetary IR (W/m^2)    153         153         153
  Minimum Planetary IR (W/m^2)    153         153         153
*******************************************************************************


*******************************************************************************
Ephemeris / API_USER Thu Feb 19 13:06:39 2026 Pasadena, USA      / Horizons
*******************************************************************************
Target body name: Venus (299)                     {source: DE441}
Center body name: Earth (399)                     {source: DE441}
Center-site name: BODY CENTER
*******************************************************************************
Start time      : A.D. 2025-Mar-20 02:56:00.0000 TDB
Stop  time      : A.D. 2025-Mar-23 02:56:00.0000 TDB
Step-size       : 60 minutes
*******************************************************************************
Center geodetic : 0.0, 0.0, 0.0                   {E-lon(deg),Lat(deg),Alt(km)}
Center cylindric: 0.0, 0.0, 0.0                   {E-lon(deg),Dxy(km),Dz(km)}
Center radii    : 6378.137, 6378.137, 6356.752 km {Equator_a, b, pole_c}
Output units    : AU-D
Calendar mode   : Mixed Julian/Gregorian
Output type     : GEOMETRIC cartesian states
Output format   : 3 (position, velocity, LT, range, range-rate)
EOP file        : eop.260218.p260517
EOP coverage    : DATA-BASED 1962-JAN-20 TO 2026-FEB-18. PREDICTS-> 2026-MAY-16
Reference frame : Ecliptic of J2000.0
*******************************************************************************
JDTDB
   X     Y     Z
   VX    VY    VZ
   LT    RG    RR
*******************************************************************************
$$SOE
2460757.497222222 = A.D. 2025-Mar-22 23:56:00.0000 TDB 
 X = 2.773681919974036E-01 Y = 1.128792740445152E-02 Z = 4.106246719187524E-02
 VX= 2.738893525506154E-04 VY=-3.043452475770905E-03 VZ=-3.180537533940665E-04
 LT= 1.620716415220274E-03 RG= 2.806183483824259E-01 RR= 1.017533324869894E-04
2460757.538888889 = A.D. 2025-Mar-23 00:56:00.0000 TDB 
 X = 2.773798394526947E-01 Y = 1.116112740934718E-02 Z = 4.104918683963698E-02
 VX= 2.851882799960267E-04 VY=-3.042944131325369E-03 VZ=-3.194030776667504E-04
 LT= 1.620742392763601E-03 RG= 2.806228462546230E-01 RR= 1.141445038600990E-04
2460757.580555555 = A.D. 2025-Mar-23 01:56:00.0000 TDB 
 X = 2.773919576687580E-01 Y = 1.103434898995349E-02 Z = 4.103585027511054E-02
 VX= 2.964858649858671E-04 VY=-3.042416842788018E-03 VZ=-3.207519429979773E-04
 LT= 1.620771352176218E-03 RG= 2.806278604214831E-01 RR= 1.265354641968225E-04
2460757.622222222 = A.D. 2025-Mar-23 02:56:00.0000 TDB 
 X = 2.774045465890779E-01 Y = 1.090759293546596E-02 Z = 4.102245751744703E-02
 VX= 3.077820796549500E-04 VY=-3.041870616972490E-03 VZ=-3.221003480178619E-04
 LT= 1.620803293398590E-03 RG= 2.806333908726980E-01 RR= 1.389261407506643E-04
